start=new Date('2022-05-16T00:00:00.000Z').valueOf();
sats=[{"FILE":"3447521","OBJECT_NAME":"STARLINK-3864","TLE_LINE1":"1 52468U 22049T   22135.91667824 -.00879089  00000-0 -62498-2 0  9992","PERIOD":"91.393","TIME_SYSTEM":"UTC","LAUNCH_DATE":"2022-05-06","REV_AT_EPOCH":"130","MEAN_ANOMALY":"244.0580","GP_ID":"203652724","TLE_LINE2":"2 52468  53.2174 219.2431 0001595  34.3867 244.0580 15.75612781  1302","APOAPSIS":"343.962","MEAN_ELEMENT_THEORY":"SGP4","NORAD_CAT_ID":"52468","EPHEMERIS_TYPE":"0","RCS_SIZE":null,"MEAN_MOTION":"15.75612781","DECAY_DATE":null,"MEAN_MOTION_DOT":"-0.00879089","OBJECT_TYPE":"PAYLOAD","PERIAPSIS":"341.818","OBJECT_ID":"2022-049T","MEAN_MOTION_DDOT":"0.0000000000000","ECCENTRICITY":"0.00015950","INCLINATION":"53.2174","SEMIMAJOR_AXIS":"6721.025","COUNTRY_CODE":"US","REF_FRAME":"TEME","CENTER_NAME":"EARTH","BSTAR":"-0.00624980000000","CLASSIFICATION_TYPE":"U","ELEMENT_SET_NO":"999","ARG_OF_PERICENTER":"34.3867","RA_OF_ASC_NODE":"219.2431","SITE":"AFETR","EPOCH":"2022-05-15T22:00:00.999936"},{"REF_FRAME":"TEME","COUNTRY_CODE":"US","CLASSIFICATION_TYPE":"U","CENTER_NAME":"EARTH","BSTAR":"-0.00626030000000","ELEMENT_SET_NO":"999","ARG_OF_PERICENTER":"42.6376","RA_OF_ASC_NODE":"219.2457","SITE":"AFETR","EPOCH":"2022-05-15T22:00:00.999936","RCS_SIZE":null,"MEAN_MOTION":"15.75567433","DECAY_DATE":null,"MEAN_MOTION_DOT":"-0.00878770","OBJECT_TYPE":"PAYLOAD","PERIAPSIS":"342.068","MEAN_MOTION_DDOT":"0.0000000000000","OBJECT_ID":"2022-049U","ECCENTRICITY":"0.00014150","SEMIMAJOR_AXIS":"6721.154","INCLINATION":"53.2174","GP_ID":"203653003","TLE_LINE2":"2 52469  53.2174 219.2457 0001415  42.6376 234.7516 15.75567433  1307","APOAPSIS":"343.970","NORAD_CAT_ID":"52469","MEAN_ELEMENT_THEORY":"SGP4","EPHEMERIS_TYPE":"0","OBJECT_NAME":"STARLINK-3828","FILE":"3447521","TLE_LINE1":"1 52469U 22049U   22135.91667824 -.00878770  00000-0 -62603-2 0  9997","PERIOD":"91.396","TIME_SYSTEM":"UTC","LAUNCH_DATE":"2022-05-06","REV_AT_EPOCH":"130","MEAN_ANOMALY":"234.7516"},{"GP_ID":"203652473","TLE_LINE2":"2 52470  53.2174 219.2408 0001528  37.7162 241.8127 15.75650875  1308","APOAPSIS":"343.809","NORAD_CAT_ID":"52470","MEAN_ELEMENT_THEORY":"SGP4","EPHEMERIS_TYPE":"0","OBJECT_NAME":"STARLINK-3859","FILE":"3447521","TLE_LINE1":"1 52470U 22049V   22135.91667824 -.00878928  00000-0 -62382-2 0  9998","PERIOD":"91.391","TIME_SYSTEM":"UTC","LAUNCH_DATE":"2022-05-06","REV_AT_EPOCH":"130","MEAN_ANOMALY":"241.8127","COUNTRY_CODE":"US","REF_FRAME":"TEME","CLASSIFICATION_TYPE":"U","CENTER_NAME":"EARTH","BSTAR":"-0.00623820000000","ELEMENT_SET_NO":"999","ARG_OF_PERICENTER":"37.7162","RA_OF_ASC_NODE":"219.2408","SITE":"AFETR","EPOCH":"2022-05-15T22:00:00.999936","RCS_SIZE":null,"MEAN_MOTION":"15.75650875","DECAY_DATE":null,"OBJECT_TYPE":"PAYLOAD","PERIAPSIS":"341.755","MEAN_MOTION_DOT":"-0.00878928","OBJECT_ID":"2022-049V","MEAN_MOTION_DDOT":"0.0000000000000","ECCENTRICITY":"0.00015280","SEMIMAJOR_AXIS":"6720.917","INCLINATION":"53.2174"},{"LAUNCH_DATE":"2022-05-06","TIME_SYSTEM":"UTC","TLE_LINE1":"1 52471U 22049W   22135.91667824 -.00878857  00000-0 -62547-2 0  9993","FILE":"3447521","OBJECT_NAME":"STARLINK-3862","PERIOD":"91.394","MEAN_ANOMALY":"239.0468","REV_AT_EPOCH":"130","APOAPSIS":"343.972","TLE_LINE2":"2 52471  53.2174 219.2445 0001510  38.8743 239.0468 15.75589265  1309","GP_ID":"203652561","EPHEMERIS_TYPE":"0","MEAN_ELEMENT_THEORY":"SGP4","NORAD_CAT_ID":"52471","DECAY_DATE":null,"MEAN_MOTION":"15.75589265","RCS_SIZE":null,"ECCENTRICITY":"0.00015100","OBJECT_ID":"2022-049W","MEAN_MOTION_DDOT":"0.0000000000000","INCLINATION":"53.2174","SEMIMAJOR_AXIS":"6721.092","OBJECT_TYPE":"PAYLOAD","MEAN_MOTION_DOT":"-0.00878857","PERIAPSIS":"341.942","COUNTRY_CODE":"US","REF_FRAME":"TEME","ELEMENT_SET_NO":"999","CLASSIFICATION_TYPE":"U","CENTER_NAME":"EARTH","BSTAR":"-0.00625470000000","EPOCH":"2022-05-15T22:00:00.999936","ARG_OF_PERICENTER":"38.8743","RA_OF_ASC_NODE":"219.2445","SITE":"AFETR"},{"ECCENTRICITY":"0.00015860","MEAN_MOTION_DDOT":"0.0000000000000","OBJECT_ID":"2022-049X","SEMIMAJOR_AXIS":"6720.798","INCLINATION":"53.2174","OBJECT_TYPE":"PAYLOAD","PERIAPSIS":"341.597","MEAN_MOTION_DOT":"-0.00879136","DECAY_DATE":null,"RCS_SIZE":null,"MEAN_MOTION":"15.75692495","EPOCH":"2022-05-15T22:00:00.999936","ARG_OF_PERICENTER":"34.5294","SITE":"AFETR","RA_OF_ASC_NODE":"219.2386","REF_FRAME":"TEME","COUNTRY_CODE":"US","ELEMENT_SET_NO":"999","BSTAR":"-0.00622820000000","CENTER_NAME":"EARTH","CLASSIFICATION_TYPE":"U","MEAN_ANOMALY":"246.0652","REV_AT_EPOCH":"130","LAUNCH_DATE":"2022-05-06","TIME_SYSTEM":"UTC","TLE_LINE1":"1 52472U 22049X   22135.91667824 -.00879136  00000-0 -62282-2 0  9991","OBJECT_NAME":"STARLINK-3881","FILE":"3447521","PERIOD":"91.388","EPHEMERIS_TYPE":"0","NORAD_CAT_ID":"52472","MEAN_ELEMENT_THEORY":"SGP4","APOAPSIS":"343.729","TLE_LINE2":"2 52472  53.2174 219.2386 0001586  34.5294 246.0652 15.75692495  1304","GP_ID":"203652380"},{"MEAN_MOTION_DOT":"-0.00879203","OBJECT_TYPE":"PAYLOAD","PERIAPSIS":"341.707","ECCENTRICITY":"0.00016830","OBJECT_ID":"2022-049Y","MEAN_MOTION_DDOT":"0.0000000000000","INCLINATION":"53.2174","SEMIMAJOR_AXIS":"6720.973","RCS_SIZE":null,"MEAN_MOTION":"15.75631125","DECAY_DATE":null,"ARG_OF_PERICENTER":"32.1718","RA_OF_ASC_NODE":"219.2423","SITE":"AFETR","EPOCH":"2022-05-15T22:00:00.999936","REF_FRAME":"TEME","COUNTRY_CODE":"US","ELEMENT_SET_NO":"999","CLASSIFICATION_TYPE":"U","CENTER_NAME":"EARTH","BSTAR":"-0.00624540000000","REV_AT_EPOCH":"130","MEAN_ANOMALY":"246.8189","TLE_LINE1":"1 52473U 22049Y   22135.91667824 -.00879203  00000-0 -62454-2 0  9998","FILE":"3447521","OBJECT_NAME":"STARLINK-3879","PERIOD":"91.392","LAUNCH_DATE":"2022-05-06","TIME_SYSTEM":"UTC","NORAD_CAT_ID":"52473","MEAN_ELEMENT_THEORY":"SGP4","EPHEMERIS_TYPE":"0","TLE_LINE2":"2 52473  53.2174 219.2423 0001683  32.1718 246.8189 15.75631125  1306","GP_ID":"203653036","APOAPSIS":"343.969"},{"APOAPSIS":"343.578","TLE_LINE2":"2 52474  53.2174 219.2363 0001546  36.2596 245.3857 15.75736318  1303","GP_ID":"203652819","EPHEMERIS_TYPE":"0","NORAD_CAT_ID":"52474","MEAN_ELEMENT_THEORY":"SGP4","LAUNCH_DATE":"2022-05-06","TIME_SYSTEM":"UTC","TLE_LINE1":"1 52474U 22049Z   22135.91667824 -.00878977  00000-0 -62150-2 0  9999","OBJECT_NAME":"STARLINK-3855","FILE":"3447521","PERIOD":"91.386","MEAN_ANOMALY":"245.3857","REV_AT_EPOCH":"130","REF_FRAME":"TEME","COUNTRY_CODE":"US","ELEMENT_SET_NO":"999","BSTAR":"-0.00621500000000","CLASSIFICATION_TYPE":"U","CENTER_NAME":"EARTH","EPOCH":"2022-05-15T22:00:00.999936","ARG_OF_PERICENTER":"36.2596","RA_OF_ASC_NODE":"219.2363","SITE":"AFETR","DECAY_DATE":null,"MEAN_MOTION":"15.75736318","RCS_SIZE":null,"ECCENTRICITY":"0.00015460","MEAN_MOTION_DDOT":"0.0000000000000","OBJECT_ID":"2022-049Z","INCLINATION":"53.2174","SEMIMAJOR_AXIS":"6720.674","OBJECT_TYPE":"PAYLOAD","PERIAPSIS":"341.500","MEAN_MOTION_DOT":"-0.00878977"},{"GP_ID":"203652908","TLE_LINE2":"2 52475  53.2174 219.2400 0001519  38.1313 241.9303 15.75671797  1301","APOAPSIS":"343.743","NORAD_CAT_ID":"52475","MEAN_ELEMENT_THEORY":"SGP4","EPHEMERIS_TYPE":"0","PERIOD":"91.390","FILE":"3447521","OBJECT_NAME":"STARLINK-3882","TLE_LINE1":"1 52475U 22049AA  22135.91667824 -.00879011  00000-0 -62331-2 0  9991","TIME_SYSTEM":"UTC","LAUNCH_DATE":"2022-05-06","REV_AT_EPOCH":"130","MEAN_ANOMALY":"241.9303","BSTAR":"-0.00623310000000","CENTER_NAME":"EARTH","CLASSIFICATION_TYPE":"U","ELEMENT_SET_NO":"999","REF_FRAME":"TEME","COUNTRY_CODE":"US","RA_OF_ASC_NODE":"219.2400","SITE":"AFETR","ARG_OF_PERICENTER":"38.1313","EPOCH":"2022-05-15T22:00:00.999936","MEAN_MOTION":"15.75671797","RCS_SIZE":null,"DECAY_DATE":null,"OBJECT_TYPE":"PAYLOAD","PERIAPSIS":"341.701","MEAN_MOTION_DOT":"-0.00879011","INCLINATION":"53.2174","SEMIMAJOR_AXIS":"6720.857","MEAN_MOTION_DDOT":"0.0000000000000","OBJECT_ID":"2022-049AA","ECCENTRICITY":"0.00015190"},{"ELEMENT_SET_NO":"999","CLASSIFICATION_TYPE":"U","BSTAR":"-0.00620390000000","CENTER_NAME":"EARTH","REF_FRAME":"TEME","COUNTRY_CODE":"US","RA_OF_ASC_NODE":"219.2341","SITE":"AFETR","ARG_OF_PERICENTER":"39.6166","EPOCH":"2022-05-15T22:00:00.999936","MEAN_MOTION":"15.75774572","RCS_SIZE":null,"DECAY_DATE":null,"MEAN_MOTION_DOT":"-0.00878882","OBJECT_TYPE":"PAYLOAD","PERIAPSIS":"341.431","INCLINATION":"53.2174","SEMIMAJOR_AXIS":"6720.565","ECCENTRICITY":"0.00014860","MEAN_MOTION_DDOT":"0.0000000000000","OBJECT_ID":"2022-049AB","TLE_LINE2":"2 52476  53.2174 219.2341 0001486  39.6166 243.1033 15.75774572  1300","GP_ID":"203652725","APOAPSIS":"343.429","NORAD_CAT_ID":"52476","MEAN_ELEMENT_THEORY":"SGP4","EPHEMERIS_TYPE":"0","PERIOD":"91.384","TLE_LINE1":"1 52476U 22049AB  22135.91667824 -.00878882  00000-0 -62039-2 0  9992","OBJECT_NAME":"STARLINK-3835","FILE":"3447521","LAUNCH_DATE":"2022-05-06","TIME_SYSTEM":"UTC","REV_AT_EPOCH":"130","MEAN_ANOMALY":"243.1033"},{"OBJECT_TYPE":"PAYLOAD","MEAN_MOTION_DOT":"-0.00878932","PERIAPSIS":"341.567","INCLINATION":"53.2174","SEMIMAJOR_AXIS":"6720.729","ECCENTRICITY":"0.00015270","OBJECT_ID":"2022-049AC","MEAN_MOTION_DDOT":"0.0000000000000","RCS_SIZE":null,"MEAN_MOTION":"15.75717035","DECAY_DATE":null,"RA_OF_ASC_NODE":"219.2378","SITE":"AFETR","ARG_OF_PERICENTER":"37.1645","EPOCH":"2022-05-15T22:00:00.999936","ELEMENT_SET_NO":"999","BSTAR":"-0.00622000000000","CLASSIFICATION_TYPE":"U","CENTER_NAME":"EARTH","COUNTRY_CODE":"US","REF_FRAME":"TEME","REV_AT_EPOCH":"130","MEAN_ANOMALY":"243.9430","PERIOD":"91.387","TLE_LINE1":"1 52477U 22049AC  22135.91667824 -.00878932  00000-0 -62200-2 0  9999","OBJECT_NAME":"STARLINK-3860","FILE":"3447521","LAUNCH_DATE":"2022-05-06","TIME_SYSTEM":"UTC","NORAD_CAT_ID":"52477","MEAN_ELEMENT_THEORY":"SGP4","EPHEMERIS_TYPE":"0","TLE_LINE2":"2 52477  53.2174 219.2378 0001527  37.1645 243.9430 15.75717035  1302","GP_ID":"203653004","APOAPSIS":"343.620"}];
